CYGNUS NG-20            
1 58898U 24021A   24035.71359296  .00013141  00000+0  24197-3 0  9998
2 58898  51.6408 256.7762 0002364 196.3815 272.5298 15.49506484437855
STARLINK-30970          
1 58888U 24020N   24035.91667824 -.01153724  00000+0 -52565-2 0  9991
2 58888  53.1643 273.3090 0000796  60.9060 142.7638 15.85460536  2262
STARLINK-31007          
1 58889U 24020P   24035.91667824 -.01177399  00000+0 -53593-2 0  9998
2 58889  53.1641 273.3023 0000613  91.8513 114.9696 15.85530644  2264
STARLINK-31230          
1 58890U 24020Q   24035.91667824 -.01192666  00000+0 -54273-2 0  9990
2 58890  53.1640 273.2992 0000757  68.6100 139.8190 15.85566611  2158
STARLINK-31245          
1 58891U 24020R   24036.25001157 -.00184390  00000+0 -66771-3 0  9991
2 58891  53.1640 271.5974 0000648  81.8196 239.9686 15.88223855  2303
STARLINK-31254          
1 58892U 24020S   24035.91667824 -.01215945  00000+0 -55286-2 0  9993
2 58892  53.1639 273.2927 0000661  94.7843 116.7550 15.85633191  2268
STARLINK-31255          
1 58893U 24020T   24035.91667824 -.01228289  00000+0 -55831-2 0  9995
2 58893  53.1640 273.2895 0000560  84.8882 128.2246 15.85665929  2260
STARLINK-31243          
1 58894U 24020U   24035.91667824 -.01245117  00000+0 -56595-2 0  9993
2 58894  53.1642 273.2862 0000578  67.5487 147.1573 15.85701390  1989
STARLINK-31218          
1 58895U 24020V   24035.91667824 -.01256685  00000+0 -57100-2 0  9999
2 58895  53.1642 273.2827 0000541  82.4149 133.9522 15.85733512  2150
STARLINK-31221          
1 58896U 24020W   24035.91667824 -.01265698  00000+0 -57488-2 0  9993
2 58896  53.1641 273.2801 0000548  81.8734 135.7525 15.85760069  2152
STARLINK-31190          
1 58897U 24020X   24035.91667824 -.01282058  00000+0 -58231-2 0  9990
2 58897  53.1644 273.2769 0000622  69.3613 149.9092 15.85793905  1980
2024-022A               
1 58899U 24022A   24032.38048806 -.00000064  00000+0  00000+0 0  9996
2 58899  97.4889 235.3170 0015243 290.3450 170.2635 15.11629772   167
2024-022B               
1 58900U 24022B   24032.38035316 -.00000065  00000+0  00000+0 0  9992
2 58900  97.4876 235.3178 0015536 288.4540 172.0853 15.11803558   165
2024-022C               
1 58901U 24022C   24032.38026002 -.00000065  00000+0  00000+0 0  9995
2 58901  97.4894 235.3150 0014446 284.5707 176.0898 15.11959949   166
