[
  {
    "OBJECT_NAME": "STARLINK-30970",
    "OBJECT_ID": "2024-020N",
    "EPOCH": "2024-02-04T22:00:00.999936",
    "MEAN_MOTION": 15.85460536,
    "ECCENTRICITY": 7.96e-05,
    "INCLINATION": 53.1643,
    "RA_OF_ASC_NODE": 273.309,
    "ARG_OF_PERICENTER": 60.906,
    "MEAN_ANOMALY": 142.7638,
    "EPHEMERIS_TYPE": 0,
    "CLASSIFICATION_TYPE": "U",
    "NORAD_CAT_ID": 58888,
    "ELEMENT_SET_NO": 999,
    "REV_AT_EPOCH": 226,
    "BSTAR": -0.0052565,
    "MEAN_MOTION_DOT": -0.01153724,
    "MEAN_MOTION_DDOT": 0
  },
  {
    "OBJECT_NAME": "STARLINK-31007",
    "OBJECT_ID": "2024-020P",
    "EPOCH": "2024-02-04T22:00:00.999936",
    "MEAN_MOTION": 15.85530644,
    "ECCENTRICITY": 6.13e-05,
    "INCLINATION": 53.1641,
    "RA_OF_ASC_NODE": 273.3023,
    "ARG_OF_PERICENTER": 91.8513,
    "MEAN_ANOMALY": 114.9696,
    "EPHEMERIS_TYPE": 0,
    "CLASSIFICATION_TYPE": "U",
    "NORAD_CAT_ID": 58889,
    "ELEMENT_SET_NO": 999,
    "REV_AT_EPOCH": 226,
    "BSTAR": -0.0053593,
    "MEAN_MOTION_DOT": -0.01177399,
    "MEAN_MOTION_DDOT": 0
  },
  {
    "OBJECT_NAME": "STARLINK-31230",
    "OBJECT_ID": "2024-020Q",
    "EPOCH": "2024-02-04T22:00:00.999936",
    "MEAN_MOTION": 15.85566611,
    "ECCENTRICITY": 7.57e-05,
    "INCLINATION": 53.164,
    "RA_OF_ASC_NODE": 273.2992,
    "ARG_OF_PERICENTER": 68.61,
    "MEAN_ANOMALY": 139.819,
    "EPHEMERIS_TYPE": 0,
    "CLASSIFICATION_TYPE": "U",
    "NORAD_CAT_ID": 58890,
    "ELEMENT_SET_NO": 999,
    "REV_AT_EPOCH": 215,
    "BSTAR": -0.0054273,
    "MEAN_MOTION_DOT": -0.01192666,
    "MEAN_MOTION_DDOT": 0
  },
  {
    "OBJECT_NAME": "STARLINK-31245",
    "OBJECT_ID": "2024-020R",
    "EPOCH": "2024-02-05T06:00:00.999648",
    "MEAN_MOTION": 15.88223855,
    "ECCENTRICITY": 6.48e-05,
    "INCLINATION": 53.164,
    "RA_OF_ASC_NODE": 271.5974,
    "ARG_OF_PERICENTER": 81.8196,
    "MEAN_ANOMALY": 239.9686,
    "EPHEMERIS_TYPE": 0,
    "CLASSIFICATION_TYPE": "U",
    "NORAD_CAT_ID": 58891,
    "ELEMENT_SET_NO": 999,
    "REV_AT_EPOCH": 230,
    "BSTAR": -0.00066771,
    "MEAN_MOTION_DOT": -0.0018439,
    "MEAN_MOTION_DDOT": 0
  },
  {
    "OBJECT_NAME": "STARLINK-31254",
    "OBJECT_ID": "2024-020S",
    "EPOCH": "2024-02-04T22:00:00.999936",
    "MEAN_MOTION": 15.85633191,
    "ECCENTRICITY": 6.61e-05,
    "INCLINATION": 53.1639,
    "RA_OF_ASC_NODE": 273.2927,
    "ARG_OF_PERICENTER": 94.7843,
    "MEAN_ANOMALY": 116.755,
    "EPHEMERIS_TYPE": 0,
    "CLASSIFICATION_TYPE": "U",
    "NORAD_CAT_ID": 58892,
    "ELEMENT_SET_NO": 999,
    "REV_AT_EPOCH": 226,
    "BSTAR": -0.0055286,
    "MEAN_MOTION_DOT": -0.01215945,
    "MEAN_MOTION_DDOT": 0
  },
  {
    "OBJECT_NAME": "STARLINK-31255",
    "OBJECT_ID": "2024-020T",
    "EPOCH": "2024-02-04T22:00:00.999936",
    "MEAN_MOTION": 15.85665929,
    "ECCENTRICITY": 5.6e-05,
    "INCLINATION": 53.164,
    "RA_OF_ASC_NODE": 273.2895,
    "ARG_OF_PERICENTER": 84.8882,
    "MEAN_ANOMALY": 128.2246,
    "EPHEMERIS_TYPE": 0,
    "CLASSIFICATION_TYPE": "U",
    "NORAD_CAT_ID": 58893,
    "ELEMENT_SET_NO": 999,
    "REV_AT_EPOCH": 226,
    "BSTAR": -0.0055831,
    "MEAN_MOTION_DOT": -0.01228289,
    "MEAN_MOTION_DDOT": 0
  },
  {
    "OBJECT_NAME": "STARLINK-31243",
    "OBJECT_ID": "2024-020U",
    "EPOCH": "2024-02-04T22:00:00.999936",
    "MEAN_MOTION": 15.8570139,
    "ECCENTRICITY": 5.78e-05,
    "INCLINATION": 53.1642,
    "RA_OF_ASC_NODE": 273.2862,
    "ARG_OF_PERICENTER": 67.5487,
    "MEAN_ANOMALY": 147.1573,
    "EPHEMERIS_TYPE": 0,
    "CLASSIFICATION_TYPE": "U",
    "NORAD_CAT_ID": 58894,
    "ELEMENT_SET_NO": 999,
    "REV_AT_EPOCH": 198,
    "BSTAR": -0.0056595,
    "MEAN_MOTION_DOT": -0.01245117,
    "MEAN_MOTION_DDOT": 0
  },
  {
    "OBJECT_NAME": "STARLINK-31218",
    "OBJECT_ID": "2024-020V",
    "EPOCH": "2024-02-04T22:00:00.999936",
    "MEAN_MOTION": 15.85733512,
    "ECCENTRICITY": 5.41e-05,
    "INCLINATION": 53.1642,
    "RA_OF_ASC_NODE": 273.2827,
    "ARG_OF_PERICENTER": 82.4149,
    "MEAN_ANOMALY": 133.9522,
    "EPHEMERIS_TYPE": 0,
    "CLASSIFICATION_TYPE": "U",
    "NORAD_CAT_ID": 58895,
    "ELEMENT_SET_NO": 999,
    "REV_AT_EPOCH": 215,
    "BSTAR": -0.00571,
    "MEAN_MOTION_DOT": -0.01256685,
    "MEAN_MOTION_DDOT": 0
  },
  {
    "OBJECT_NAME": "STARLINK-31221",
    "OBJECT_ID": "2024-020W",
    "EPOCH": "2024-02-04T22:00:00.999936",
    "MEAN_MOTION": 15.85760069,
    "ECCENTRICITY": 5.48e-05,
    "INCLINATION": 53.1641,
    "RA_OF_ASC_NODE": 273.2801,
    "ARG_OF_PERICENTER": 81.8734,
    "MEAN_ANOMALY": 135.7525,
    "EPHEMERIS_TYPE": 0,
    "CLASSIFICATION_TYPE": "U",
    "NORAD_CAT_ID": 58896,
    "ELEMENT_SET_NO": 999,
    "REV_AT_EPOCH": 215,
    "BSTAR": -0.0057488,
    "MEAN_MOTION_DOT": -0.01265698,
    "MEAN_MOTION_DDOT": 0
  },
  {
    "OBJECT_NAME": "STARLINK-31190",
    "OBJECT_ID": "2024-020X",
    "EPOCH": "2024-02-04T22:00:00.999936",
    "MEAN_MOTION": 15.85793905,
    "ECCENTRICITY": 6.22e-05,
    "INCLINATION": 53.1644,
    "RA_OF_ASC_NODE": 273.2769,
    "ARG_OF_PERICENTER": 69.3613,
    "MEAN_ANOMALY": 149.9092,
    "EPHEMERIS_TYPE": 0,
    "CLASSIFICATION_TYPE": "U",
    "NORAD_CAT_ID": 58897,
    "ELEMENT_SET_NO": 999,
    "REV_AT_EPOCH": 198,
    "BSTAR": -0.0058231,
    "MEAN_MOTION_DOT": -0.01282058,
    "MEAN_MOTION_DDOT": 0
  },
  {
    "OBJECT_NAME": "CYGNUS NG-20",
    "OBJECT_ID": "2024-021A",
    "EPOCH": "2024-02-04T17:07:34.431744",
    "MEAN_MOTION": 15.49506484,
    "ECCENTRICITY": 0.0002364,
    "INCLINATION": 51.6408,
    "RA_OF_ASC_NODE": 256.7762,
    "ARG_OF_PERICENTER": 196.3815,
    "MEAN_ANOMALY": 272.5298,
    "EPHEMERIS_TYPE": 0,
    "CLASSIFICATION_TYPE": "U",
    "NORAD_CAT_ID": 58898,
    "ELEMENT_SET_NO": 999,
    "REV_AT_EPOCH": 43785,
    "BSTAR": 0.00024197,
    "MEAN_MOTION_DOT": 0.00013141,
    "MEAN_MOTION_DDOT": 0
  },
  {
    "OBJECT_NAME": "2024-022A",
    "OBJECT_ID": "2024-022A",
    "EPOCH": "2024-02-01T09:07:54.168384",
    "MEAN_MOTION": 15.11629772,
    "ECCENTRICITY": 0.0015243,
    "INCLINATION": 97.4889,
    "RA_OF_ASC_NODE": 235.317,
    "ARG_OF_PERICENTER": 290.345,
    "MEAN_ANOMALY": 170.2635,
    "EPHEMERIS_TYPE": 0,
    "CLASSIFICATION_TYPE": "U",
    "NORAD_CAT_ID": 58899,
    "ELEMENT_SET_NO": 999,
    "REV_AT_EPOCH": 16,
    "BSTAR": 0,
    "MEAN_MOTION_DOT": -6.4e-07,
    "MEAN_MOTION_DDOT": 0
  },
  {
    "OBJECT_NAME": "2024-022B",
    "OBJECT_ID": "2024-022B",
    "EPOCH": "2024-02-01T09:07:42.513024",
    "MEAN_MOTION": 15.11803558,
    "ECCENTRICITY": 0.0015536,
    "INCLINATION": 97.4876,
    "RA_OF_ASC_NODE": 235.3178,
    "ARG_OF_PERICENTER": 288.454,
    "MEAN_ANOMALY": 172.0853,
    "EPHEMERIS_TYPE": 0,
    "CLASSIFICATION_TYPE": "U",
    "NORAD_CAT_ID": 58900,
    "ELEMENT_SET_NO": 999,
    "REV_AT_EPOCH": 16,
    "BSTAR": 0,
    "MEAN_MOTION_DOT": -6.5e-07,
    "MEAN_MOTION_DDOT": 0
  },
  {
    "OBJECT_NAME": "2024-022C",
    "OBJECT_ID": "2024-022C",
    "EPOCH": "2024-02-01T09:07:34.465728",
    "MEAN_MOTION": 15.11959949,
    "ECCENTRICITY": 0.0014446,
    "INCLINATION": 97.4894,
    "RA_OF_ASC_NODE": 235.315,
    "ARG_OF_PERICENTER": 284.5707,
    "MEAN_ANOMALY": 176.0898,
    "EPHEMERIS_TYPE": 0,
    "CLASSIFICATION_TYPE": "U",
    "NORAD_CAT_ID": 58901,
    "ELEMENT_SET_NO": 999,
    "REV_AT_EPOCH": 16,
    "BSTAR": 0,
    "MEAN_MOTION_DOT": -6.5e-07,
    "MEAN_MOTION_DDOT": 0
  }
]